{
"type": "FeatureCollection",
"name": "ruta_ejemplo",
"crs": { "type": "name", "properties": { "name": "urn:ogc:def:crs:OGC:1.3:CRS84" } },
"features": [
{ "type": "Feature", "properties": { "seq": 1 }, "geometry": { "type": "LineString", "coordinates": [ [ -70.774172599999986, -33.289248599570755 ], [ -70.7743988, -33.289069399570728 ], [ -70.7751459, -33.288477399570631 ], [ -70.776271199999982, -33.287655399570511 ], [ -70.7765539, -33.287472599570478 ], [ -70.777437299999988, -33.286901499570384 ], [ -70.7779732, -33.286554999570342 ], [ -70.7792969, -33.285734299570208 ], [ -70.779880299999988, -33.285367699570159 ], [ -70.7805106, -33.284946199570093 ], [ -70.780938399999982, -33.284652499570036 ], [ -70.7817096, -33.284079599569957 ], [ -70.7823304, -33.283598699569886 ], [ -70.7831472, -33.282909099569778 ], [ -70.7834503, -33.282659099569734 ], [ -70.7836023, -33.282523699569715 ], [ -70.7837494, -33.282384499569702 ], [ -70.783920800000018, -33.282210999569664 ], [ -70.784084599999986, -33.282032399569644 ], [ -70.784402, -33.281655099569591 ], [ -70.7846975, -33.28127679956954 ], [ -70.7848941, -33.281023099569495 ] ] } },
{ "type": "Feature", "properties": { "seq": 2 }, "geometry": { "type": "LineString", "coordinates": [ [ -70.7720414, -33.289929699570862 ], [ -70.772814, -33.29000329957087 ], [ -70.7730916, -33.290006699570867 ], [ -70.7731495, -33.289999399570867 ], [ -70.7732061, -33.289986599570874 ], [ -70.7732606, -33.289968599570855 ], [ -70.773323099999985, -33.28993979957086 ], [ -70.7733802, -33.289904099570855 ], [ -70.77343089999998, -33.289862099570847 ], [ -70.7739411, -33.289439999570781 ], [ -70.774172599999986, -33.289248599570755 ] ] } },
{ "type": "Feature", "properties": { "seq": 3 }, "geometry": { "type": "LineString", "coordinates": [ [ -70.7716622, -33.28988789957085 ], [ -70.7720414, -33.289929699570862 ] ] } },
{ "type": "Feature", "properties": { "seq": 4 }, "geometry": { "type": "LineString", "coordinates": [ [ -70.758348399999988, -33.283301199569834 ], [ -70.7584145, -33.283374199569849 ], [ -70.7585911, -33.283555399569877 ], [ -70.758702899999989, -33.283672599569904 ], [ -70.7588605, -33.283828299569926 ], [ -70.7589982, -33.284000599569943 ], [ -70.759106099999983, -33.284162699569976 ], [ -70.75922, -33.284401799570013 ], [ -70.7593385, -33.284740299570061 ], [ -70.759489699999989, -33.285071299570099 ], [ -70.7595386, -33.285137199570123 ], [ -70.7596259, -33.285233299570137 ], [ -70.7596877, -33.285284899570151 ], [ -70.7597792, -33.285343599570155 ], [ -70.7598665, -33.28539699957016 ], [ -70.760056, -33.28548419957017 ], [ -70.761028399999987, -33.285853199570241 ], [ -70.7611928, -33.285920199570242 ], [ -70.7613013, -33.285953999570246 ], [ -70.7614142, -33.285984299570259 ], [ -70.7615483, -33.286003899570254 ], [ -70.7617442, -33.286012799570251 ], [ -70.7619336, -33.286010999570266 ], [ -70.7620188, -33.286002099570247 ], [ -70.7625148, -33.285950499570241 ], [ -70.7626425, -33.285946899570241 ], [ -70.762751099999988, -33.285957599570253 ], [ -70.7628767, -33.285986099570259 ], [ -70.7632024, -33.286074999570261 ], [ -70.763572899999986, -33.286178299570288 ], [ -70.7639007, -33.2862814995703 ], [ -70.7640369, -33.286349099570302 ], [ -70.76422, -33.286450499570321 ], [ -70.764384, -33.286534199570333 ], [ -70.7647459, -33.286749499570362 ], [ -70.76566219999998, -33.287223999570436 ], [ -70.7657668, -33.28727319957045 ], [ -70.7659489, -33.287358799570448 ], [ -70.766366, -33.287542299570489 ], [ -70.767296299999984, -33.287951499570546 ], [ -70.7674967, -33.288039599570574 ], [ -70.7675051, -33.28804289957057 ], [ -70.768714, -33.288510599570643 ], [ -70.769033599999986, -33.288636499570671 ], [ -70.769297899999984, -33.288775899570687 ], [ -70.7696243, -33.288958899570709 ], [ -70.769833299999988, -33.289076099570721 ], [ -70.769970299999983, -33.289156699570739 ], [ -70.7700518, -33.28920439957075 ], [ -70.7705543, -33.289498799570787 ], [ -70.770617299999984, -33.289535999570795 ], [ -70.7706829, -33.289574799570801 ], [ -70.7707683, -33.289624399570812 ], [ -70.770794, -33.289637099570811 ], [ -70.7710554, -33.289765899570838 ], [ -70.7713643, -33.289849799570838 ], [ -70.7716622, -33.28988789957085 ] ] } },
{ "type": "Feature", "properties": { "seq": 5 }, "geometry": { "type": "LineString", "coordinates": [ [ -70.7572213, -33.282059399569647 ], [ -70.7574718, -33.282283599569674 ], [ -70.7578857, -33.282717699569751 ], [ -70.7581839, -33.283056999569794 ], [ -70.7582212, -33.283099399569799 ], [ -70.758348399999988, -33.283301199569834 ] ] } },
{ "type": "Feature", "properties": { "seq": 6 }, "geometry": { "type": "LineString", "coordinates": [ [ -70.7571745, -33.28200349956964 ], [ -70.7572213, -33.282059399569647 ] ] } },
{ "type": "Feature", "properties": { "seq": 7 }, "geometry": { "type": "LineString", "coordinates": [ [ -70.757104, -33.281920799569626 ], [ -70.7571745, -33.28200349956964 ] ] } },
{ "type": "Feature", "properties": { "seq": 8 }, "geometry": { "type": "LineString", "coordinates": [ [ -70.748113, -33.275555099568656 ], [ -70.748270799999986, -33.275751899568682 ], [ -70.7483275, -33.2758354995687 ], [ -70.7483907, -33.275915799568708 ], [ -70.748396400000019, -33.275922199568697 ], [ -70.748459899999986, -33.275992499568716 ], [ -70.748538499999981, -33.276068499568723 ], [ -70.7486231, -33.276139799568732 ], [ -70.7487134, -33.27620619956874 ], [ -70.7488088, -33.276267299568765 ], [ -70.749773499999989, -33.276710199568825 ], [ -70.7520743, -33.27761679956896 ], [ -70.753714699999989, -33.278246299569062 ], [ -70.753978499999988, -33.278361699569082 ], [ -70.7540453, -33.278390899569082 ], [ -70.7544, -33.278553899569111 ], [ -70.7545909, -33.27867409956913 ], [ -70.7546887, -33.278735699569133 ], [ -70.7548592, -33.278856199569162 ], [ -70.7550189, -33.278967199569173 ], [ -70.7551852, -33.279117399569195 ], [ -70.7554214, -33.279398299569237 ], [ -70.75554889999998, -33.279594199569267 ], [ -70.755567199999987, -33.279636599569272 ], [ -70.755643699999979, -33.279813999569299 ], [ -70.7556809, -33.279886899569313 ], [ -70.7559223, -33.280360299569395 ], [ -70.7559879, -33.280488999569414 ], [ -70.7561303, -33.280724599569439 ], [ -70.756157, -33.280759499569449 ], [ -70.7564351, -33.281122099569494 ], [ -70.756757800000017, -33.281527899569568 ], [ -70.756832, -33.281612099569578 ], [ -70.7570725, -33.281885099569621 ], [ -70.757104, -33.281920799569626 ] ] } },
{ "type": "Feature", "properties": { "seq": 9 }, "geometry": { "type": "LineString", "coordinates": [ [ -70.748113, -33.275555099568656 ], [ -70.7480426, -33.275492999568641 ], [ -70.7479671, -33.275435399568629 ], [ -70.7478868, -33.275382399568628 ], [ -70.7478022, -33.275334399568614 ], [ -70.7477206, -33.275294699568612 ], [ -70.747636, -33.275259699568601 ], [ -70.7472868, -33.27513719956859 ] ] } },
{ "type": "Feature", "properties": { "seq": 10 }, "geometry": { "type": "LineString", "coordinates": [ [ -70.7472868, -33.27513719956859 ], [ -70.7471057, -33.27508219956858 ], [ -70.7457737, -33.274677899568509 ], [ -70.745292099999986, -33.274530399568498 ], [ -70.7450686, -33.274461899568486 ] ] } },
{ "type": "Feature", "properties": { "seq": 11 }, "geometry": { "type": "LineString", "coordinates": [ [ -70.7450686, -33.274461899568486 ], [ -70.744613, -33.274334999568467 ], [ -70.7441372, -33.274198699568451 ], [ -70.7437295, -33.274066399568426 ], [ -70.7428645, -33.273784399568378 ], [ -70.74236980000002, -33.273629399568364 ] ] } },
{ "type": "Feature", "properties": { "seq": 12 }, "geometry": { "type": "LineString", "coordinates": [ [ -70.74236980000002, -33.273629399568364 ], [ -70.7414033, -33.273322299568306 ] ] } },
{ "type": "Feature", "properties": { "seq": 13 }, "geometry": { "type": "LineString", "coordinates": [ [ -70.7414033, -33.273322299568306 ], [ -70.7411827, -33.273250699568294 ] ] } },
{ "type": "Feature", "properties": { "seq": 14 }, "geometry": { "type": "LineString", "coordinates": [ [ -70.7411827, -33.273250699568294 ], [ -70.7410493, -33.273231099568292 ], [ -70.740987, -33.273226499568295 ], [ -70.740920299999985, -33.273224999568292 ], [ -70.7408542, -33.273232299568285 ], [ -70.740790299999986, -33.273248099568299 ], [ -70.74073, -33.273272099568302 ], [ -70.740675, -33.273303599568308 ], [ -70.7406266, -33.273341899568315 ], [ -70.7405859, -33.273386099568313 ], [ -70.7405539, -33.273434999568323 ], [ -70.7405315, -33.27348749956834 ], [ -70.740519099999986, -33.273542299568348 ], [ -70.7405172, -33.273598099568353 ], [ -70.7405256, -33.273653399568367 ], [ -70.740544299999982, -33.273706899568367 ], [ -70.7405731, -33.273757899568373 ], [ -70.7406112, -33.273804399568384 ], [ -70.7406576, -33.273845299568379 ], [ -70.740711099999984, -33.273879599568396 ], [ -70.740770499999982, -33.273906399568403 ], [ -70.7408341, -33.273925099568402 ], [ -70.7409005, -33.273935099568405 ], [ -70.740967899999987, -33.273936199568404 ], [ -70.7410347, -33.273928399568412 ], [ -70.7410992, -33.273911899568404 ], [ -70.74115980000002, -33.273887099568398 ], [ -70.741214899999989, -33.273854599568388 ], [ -70.7412632, -33.273815199568389 ], [ -70.7413739, -33.273700799568374 ] ] } },
{ "type": "Feature", "properties": { "seq": 15 }, "geometry": { "type": "LineString", "coordinates": [ [ -70.741083499999988, -33.274330999568456 ], [ -70.7413739, -33.273700799568374 ] ] } },
{ "type": "Feature", "properties": { "seq": 16 }, "geometry": { "type": "LineString", "coordinates": [ [ -70.740880299999986, -33.27476759956852 ], [ -70.741083499999988, -33.274330999568456 ] ] } },
{ "type": "Feature", "properties": { "seq": 17 }, "geometry": { "type": "LineString", "coordinates": [ [ -70.7398939, -33.276982699568876 ], [ -70.7403854, -33.275865399568694 ], [ -70.7405678, -33.275456999568647 ], [ -70.740592, -33.275402799568624 ], [ -70.7406976, -33.275167299568594 ], [ -70.740768, -33.275010199568555 ], [ -70.7408195, -33.274898899568555 ], [ -70.740880299999986, -33.27476759956852 ] ] } },
{ "type": "Feature", "properties": { "seq": 18 }, "geometry": { "type": "LineString", "coordinates": [ [ -70.739561399999985, -33.278427899569088 ], [ -70.7396171, -33.278209399569064 ], [ -70.739660599999979, -33.278014099569027 ], [ -70.7396954, -33.277893099569013 ], [ -70.7397276, -33.277766399568989 ], [ -70.7397544, -33.27764639956898 ], [ -70.739786599999988, -33.277490599568949 ], [ -70.7398094, -33.277372899568931 ], [ -70.73985, -33.2771774995689 ], [ -70.7398939, -33.276982699568876 ] ] } },
{ "type": "Feature", "properties": { "seq": 19 }, "geometry": { "type": "LineString", "coordinates": [ [ -70.7391094, -33.279439199569246 ], [ -70.739561399999985, -33.278427899569088 ] ] } },
{ "type": "Feature", "properties": { "seq": 20 }, "geometry": { "type": "LineString", "coordinates": [ [ -70.7385018, -33.280791999569452 ], [ -70.7388797, -33.279950499569324 ], [ -70.7391094, -33.279439199569246 ] ] } },
{ "type": "Feature", "properties": { "seq": 21 }, "geometry": { "type": "LineString", "coordinates": [ [ -70.7373928, -33.283267299569829 ], [ -70.7383654, -33.281096299569498 ], [ -70.7385018, -33.280791999569452 ] ] } },
{ "type": "Feature", "properties": { "seq": 22 }, "geometry": { "type": "LineString", "coordinates": [ [ -70.732825, -33.293454899571401 ], [ -70.7348044, -33.289048199570729 ], [ -70.7362609, -33.285790399570224 ], [ -70.7373928, -33.283267299569829 ] ] } },
{ "type": "Feature", "properties": { "seq": 23 }, "geometry": { "type": "LineString", "coordinates": [ [ -70.7325007, -33.294180999571516 ], [ -70.732825, -33.293454899571401 ] ] } },
{ "type": "Feature", "properties": { "seq": 24 }, "geometry": { "type": "LineString", "coordinates": [ [ -70.7321295, -33.295011899571641 ], [ -70.7325007, -33.294180999571516 ] ] } },
{ "type": "Feature", "properties": { "seq": 25 }, "geometry": { "type": "LineString", "coordinates": [ [ -70.7316656, -33.296048299571808 ], [ -70.7321295, -33.295011899571641 ] ] } },
{ "type": "Feature", "properties": { "seq": 26 }, "geometry": { "type": "LineString", "coordinates": [ [ -70.7306235, -33.29836419957217 ], [ -70.731196899999986, -33.297089099571963 ], [ -70.7316656, -33.296048299571808 ] ] } },
{ "type": "Feature", "properties": { "seq": 27 }, "geometry": { "type": "LineString", "coordinates": [ [ -70.7299385, -33.299892899572392 ], [ -70.7306235, -33.29836419957217 ] ] } },
{ "type": "Feature", "properties": { "seq": 28 }, "geometry": { "type": "LineString", "coordinates": [ [ -70.729705700000011, -33.300412599572475 ], [ -70.7299385, -33.299892899572392 ] ] } },
{ "type": "Feature", "properties": { "seq": 29 }, "geometry": { "type": "LineString", "coordinates": [ [ -70.7290687, -33.301834199572696 ], [ -70.729705700000011, -33.300412599572475 ] ] } },
{ "type": "Feature", "properties": { "seq": 30 }, "geometry": { "type": "LineString", "coordinates": [ [ -70.7285415, -33.303010799572888 ], [ -70.7290687, -33.301834199572696 ] ] } },
{ "type": "Feature", "properties": { "seq": 31 }, "geometry": { "type": "LineString", "coordinates": [ [ -70.7269643, -33.306516799573423 ], [ -70.7285415, -33.303010799572888 ] ] } },
{ "type": "Feature", "properties": { "seq": 32 }, "geometry": { "type": "LineString", "coordinates": [ [ -70.725721899999982, -33.309292499573836 ], [ -70.72652020000001, -33.307508999573571 ], [ -70.7269643, -33.306516799573423 ] ] } },
{ "type": "Feature", "properties": { "seq": 33 }, "geometry": { "type": "LineString", "coordinates": [ [ -70.7248655, -33.310374599574011 ], [ -70.7250975, -33.310075399573968 ], [ -70.725721899999982, -33.309292499573836 ] ] } },
{ "type": "Feature", "properties": { "seq": 34 }, "geometry": { "type": "LineString", "coordinates": [ [ -70.724782299999987, -33.310561799574039 ], [ -70.7248655, -33.310374599574011 ] ] } },
{ "type": "Feature", "properties": { "seq": 35 }, "geometry": { "type": "LineString", "coordinates": [ [ -70.7236143, -33.313201099574449 ], [ -70.7236589, -33.313102899574432 ], [ -70.724066199999982, -33.312199199574295 ], [ -70.7243586, -33.311516699574192 ], [ -70.724782299999987, -33.310561799574039 ] ] } },
{ "type": "Feature", "properties": { "seq": 36 }, "geometry": { "type": "LineString", "coordinates": [ [ -70.7236143, -33.313201099574449 ], [ -70.7236584, -33.313219299574449 ], [ -70.724218199999981, -33.313450399574492 ], [ -70.7242723, -33.31347269957449 ], [ -70.7243284, -33.313495899574491 ] ] } },
{ "type": "Feature", "properties": { "seq": 37 }, "geometry": { "type": "LineString", "coordinates": [ [ -70.7243284, -33.313495899574491 ], [ -70.724372099999982, -33.313513599574492 ], [ -70.7253117, -33.313894499574566 ] ] } },
{ "type": "Feature", "properties": { "seq": 38 }, "geometry": { "type": "LineString", "coordinates": [ [ -70.7253117, -33.313894499574566 ], [ -70.7258827, -33.314135299574595 ] ] } },
{ "type": "Feature", "properties": { "seq": 39 }, "geometry": { "type": "LineString", "coordinates": [ [ -70.7258827, -33.314135299574595 ], [ -70.7264301, -33.314347899574628 ], [ -70.7265651, -33.314399799574637 ], [ -70.726697499999986, -33.31445619957465 ], [ -70.7268271, -33.314517199574645 ], [ -70.7269529, -33.314582099574665 ], [ -70.7270754, -33.314651299574663 ], [ -70.7271945, -33.31472449957468 ], [ -70.7279741, -33.31522079957476 ], [ -70.728348299999979, -33.315476799574796 ], [ -70.728399300000021, -33.315514899574794 ], [ -70.728450899999984, -33.315555799574817 ], [ -70.72850459999998, -33.315608999574827 ], [ -70.728573699999984, -33.315662799574824 ], [ -70.7286514, -33.315721699574837 ], [ -70.7287795, -33.315809099574849 ], [ -70.7299034, -33.316534699574966 ], [ -70.731286, -33.317425699575104 ], [ -70.7324705, -33.318191499575221 ], [ -70.732948300000018, -33.318498699575272 ], [ -70.733042199999986, -33.318559199575283 ], [ -70.7361274, -33.320537199575583 ], [ -70.7380133, -33.32175349957577 ], [ -70.7381113, -33.321816699575791 ], [ -70.738204699999983, -33.321876699575789 ], [ -70.740860899999987, -33.323581899576055 ], [ -70.7409005, -33.323608299576073 ], [ -70.741083499999988, -33.323714099576073 ], [ -70.7413351, -33.323841899576102 ], [ -70.7415497, -33.323938299576106 ], [ -70.7418021, -33.324030599576126 ], [ -70.7418777, -33.324057999576134 ], [ -70.7418929, -33.324062699576125 ], [ -70.7419527, -33.324080999576132 ], [ -70.7421357, -33.324135599576145 ], [ -70.7424388, -33.324200599576145 ], [ -70.7427318, -33.324247099576162 ], [ -70.742965199999986, -33.324271699576165 ], [ -70.7430348, -33.324275599576161 ], [ -70.7431637, -33.324282899576161 ] ] } },
{ "type": "Feature", "properties": { "seq": 40 }, "geometry": { "type": "LineString", "coordinates": [ [ -70.7431637, -33.324282899576161 ], [ -70.743366199999983, -33.324294499576162 ], [ -70.7435532, -33.324292999576166 ], [ -70.743774299999984, -33.32428299957617 ], [ -70.7438127, -33.324281299576164 ], [ -70.7441344, -33.324242399576164 ], [ -70.744362, -33.324202199576156 ], [ -70.7446345, -33.324153999576147 ], [ -70.7450846, -33.324069399576132 ], [ -70.7452664, -33.324045199576133 ], [ -70.745365699999979, -33.324031999576128 ], [ -70.745715099999984, -33.324011799576127 ], [ -70.7458604, -33.324008099576119 ], [ -70.7459814, -33.324004999576125 ], [ -70.7463033, -33.324022999576123 ], [ -70.7465058, -33.324039799576134 ], [ -70.746662299999983, -33.324058199576136 ], [ -70.7467802, -33.324072099576135 ] ] } },
{ "type": "Feature", "properties": { "seq": 41 }, "geometry": { "type": "LineString", "coordinates": [ [ -70.7467802, -33.324072099576135 ], [ -70.7469121, -33.32409379957614 ] ] } },
{ "type": "Feature", "properties": { "seq": 42 }, "geometry": { "type": "LineString", "coordinates": [ [ -70.7469121, -33.32409379957614 ], [ -70.7471013, -33.324135199576141 ], [ -70.7472125, -33.324159599576156 ], [ -70.747344, -33.32419319957615 ], [ -70.747366299999982, -33.324200799576154 ], [ -70.7475143, -33.324251499576157 ], [ -70.747922099999982, -33.32440699957619 ], [ -70.7489131, -33.324784899576244 ], [ -70.7491738, -33.324886699576268 ], [ -70.7495353, -33.325027999576285 ], [ -70.7508866, -33.325547699576362 ], [ -70.7511379, -33.325644399576383 ], [ -70.7526478, -33.32623489957647 ], [ -70.7537288, -33.326654699576537 ], [ -70.7539685, -33.326749299576562 ], [ -70.754211899999987, -33.326845299576568 ] ] } },
{ "type": "Feature", "properties": { "seq": 43 }, "geometry": { "type": "LineString", "coordinates": [ [ -70.754211899999987, -33.326845299576568 ], [ -70.754334699999987, -33.326887899576576 ] ] } },
{ "type": "Feature", "properties": { "seq": 44 }, "geometry": { "type": "LineString", "coordinates": [ [ -70.754334699999987, -33.326887899576576 ], [ -70.7546328, -33.326974499576586 ], [ -70.7549804, -33.3270583995766 ], [ -70.7559002, -33.327263299576636 ], [ -70.756645899999981, -33.327428499576662 ], [ -70.7570371, -33.327515099576672 ], [ -70.757666400000019, -33.327655099576688 ], [ -70.7578263, -33.327690699576699 ], [ -70.7581927, -33.327772099576706 ], [ -70.7582766, -33.327791499576712 ], [ -70.758340799999985, -33.327806399576708 ], [ -70.758406600000015, -33.327821999576713 ] ] } },
{ "type": "Feature", "properties": { "seq": 45 }, "geometry": { "type": "LineString", "coordinates": [ [ -70.758406600000015, -33.327821999576713 ], [ -70.7595471, -33.328079799576756 ], [ -70.7604968, -33.328295399576788 ], [ -70.7613845, -33.328496899576812 ], [ -70.7617728, -33.32858499957684 ], [ -70.7620637, -33.328642999576843 ] ] } },
{ "type": "Feature", "properties": { "seq": 46 }, "geometry": { "type": "LineString", "coordinates": [ [ -70.76210709999998, -33.32854009957682 ], [ -70.7620637, -33.328642999576843 ] ] } },
{ "type": "Feature", "properties": { "seq": 47 }, "geometry": { "type": "LineString", "coordinates": [ [ -70.7633094, -33.325938299576421 ], [ -70.763126299999982, -33.326123899576444 ], [ -70.76210709999998, -33.32854009957682 ] ] } },
{ "type": "Feature", "properties": { "seq": 48 }, "geometry": { "type": "LineString", "coordinates": [ [ -70.7651496, -33.321290299575701 ], [ -70.764490599999988, -33.322899299575958 ], [ -70.7641011, -33.323864099576099 ], [ -70.7640405, -33.324013099576121 ], [ -70.7639215, -33.32430549957617 ], [ -70.7637815, -33.324641399576223 ], [ -70.7634305, -33.325488899576357 ], [ -70.7634117, -33.325534199576367 ], [ -70.76327670000002, -33.3258494995764 ], [ -70.763267, -33.325879899576414 ], [ -70.763269699999981, -33.325901299576415 ], [ -70.7632856, -33.325919599576416 ], [ -70.7633094, -33.325938299576421 ] ] } },
{ "type": "Feature", "properties": { "seq": 49 }, "geometry": { "type": "LineString", "coordinates": [ [ -70.7689211, -33.312282299574306 ], [ -70.7688577, -33.312330299574306 ], [ -70.7688028, -33.312407699574329 ], [ -70.7686982, -33.312593699574357 ], [ -70.7681934, -33.313851499574547 ], [ -70.7680228, -33.314304399574617 ], [ -70.767249199999981, -33.316236799574916 ], [ -70.7672062, -33.31634439957493 ], [ -70.766249799999983, -33.318733399575301 ], [ -70.7651496, -33.321290299575701 ] ] } },
{ "type": "Feature", "properties": { "seq": 50 }, "geometry": { "type": "LineString", "coordinates": [ [ -70.7689751, -33.312224399574298 ], [ -70.7689211, -33.312282299574306 ] ] } },
{ "type": "Feature", "properties": { "seq": 51 }, "geometry": { "type": "LineString", "coordinates": [ [ -70.7705338, -33.310504599574031 ], [ -70.7701229, -33.310762799574071 ], [ -70.7689751, -33.312224399574298 ] ] } },
{ "type": "Feature", "properties": { "seq": 52 }, "geometry": null }
]
}
